,addr,as,city,country,countryCode,isp,lat,lon,org,query,region,regionName,status,timezone,zip
0,http://159.69.46.179:8545,AS24940 Hetzner Online GmbH,Nuremberg,Germany,DE,Hetzner Online GmbH,49.452,11.0767,Hetzner,159.69.46.179,BY,Bavaria,success,Europe/Berlin,90403
1,http://39.104.74.146:8545,"AS37963 Hangzhou Alibaba Advertising Co.,Ltd.",Hangzhou,China,CN,Hangzhou Alibaba Advertising Co,30.2741,120.155,"Aliyun Computing Co., LTD",39.104.74.146,ZJ,Zhejiang,success,Asia/Shanghai,
2,http://47.74.38.125:8545,"AS45102 Alibaba (US) Technology Co., Ltd.",Tokyo,Japan,JP,Alibaba.com LLC,35.6882,139.7532,ALICLOUD-JP,47.74.38.125,13,Tokyo,success,Asia/Tokyo,102-0082
3,http://ec2-52-38-253-177.us-west-2.compute.amazonaws.com:8545,"AS16509 Amazon.com, Inc.",Portland,United States,US,"Amazon.com, Inc.",45.5235,-122.676,AWS EC2 (us-west-2),52.38.253.177,OR,Oregon,success,America/Los_Angeles,97207
4,http://47.98.105.244:8545,"AS37963 Hangzhou Alibaba Advertising Co.,Ltd.",Hangzhou,China,CN,Addresses CNNIC,30.2741,120.155,"Aliyun Computing Co., LTD",47.98.105.244,ZJ,Zhejiang,success,Asia/Shanghai,
5,http://47.88.189.195:8545,"AS45102 Alibaba (US) Technology Co., Ltd.",Singapore,Singapore,SG,Alibaba.com LLC,1.28445,103.851,ALICLOUD-SG,47.88.189.195,,,success,Asia/Singapore,
6,http://116.62.12.249:8545,"AS37963 Hangzhou Alibaba Advertising Co.,Ltd.",Hangzhou,China,CN,Addresses CNNIC,30.2741,120.155,"Aliyun Computing Co., LTD",116.62.12.249,ZJ,Zhejiang,success,Asia/Shanghai,
7,http://178.128.204.23:8545,"AS14061 DigitalOcean, LLC",Frankfurt am Main,Germany,DE,DigitalOcean,50.1188,8.6843,Digitalocean,178.128.204.23,HE,Hesse,success,Europe/Berlin,60313
8,http://35.186.151.167:8545,AS15169 Google LLC,Ashburn,United States,US,Google LLC,39.0438,-77.4874,Google LLC,35.186.151.167,VA,Virginia,success,America/New_York,20149
9,http://35.205.112.90:8545,AS15169 Google LLC,Ashburn,United States,US,Google LLC,39.0438,-77.4874,Google LLC,35.205.112.90,VA,Virginia,success,America/New_York,20149
10,http://35.198.134.98:8545,AS15169 Google LLC,Ashburn,United States,US,Google LLC,39.0438,-77.4874,Google LLC,35.198.134.98,VA,Virginia,success,America/New_York,20149
11,http://35.225.161.145:8545,AS15169 Google LLC,Ashburn,United States,US,Google LLC,39.0438,-77.4874,Google LLC,35.225.161.145,VA,Virginia,success,America/New_York,20149
12,http://150.109.43.127:8545,"AS132203 Tencent Building, Kejizhongyi Avenue",Central,Hong Kong,HK,Tencent Cloud Computing (Beijing) Co,22.2909,114.15,Aceville Pte.ltd,150.109.43.127,HCW,Central and Western District,success,Asia/Hong_Kong,96521
13,http://18.213.180.49:8545,"AS14618 Amazon.com, Inc.",Ashburn,United States,US,"Amazon.com, Inc.",39.0438,-77.4874,AWS EC2 (us-east-1),18.213.180.49,VA,Virginia,success,America/New_York,20149
14,http://47.52.174.15:8545,"AS45102 Alibaba (US) Technology Co., Ltd.",Beijing,China,CN,Alibaba.com LLC,39.9042,116.407,ALICLOUD-HK,47.52.174.15,BJ,Beijing,success,Asia/Shanghai,
15,http://106.3.36.150:8545,AS24138 China TieTong Telecommunications Corporation,Linfen,China,CN,ZlNET,36.2669,111.92,"Beijing in the interactive technology Development Co, Ltd.",106.3.36.150,SX,Shanxi,success,Asia/Shanghai,
16,http://ec2-52-69-166-207.ap-northeast-1.compute.amazonaws.com:8545,"AS16509 Amazon.com, Inc.",Tokyo,Japan,JP,Amazon Technologies Inc.,35.6895,139.692,AWS EC2 (ap-northeast-1),52.69.166.207,13,Tokyo,success,Asia/Tokyo,150-0002
17,http://122.215.240.181:8545,AS17506 ARTERIA Networks Corporation,Chiyoda,Japan,JP,ARTERIA Networks Corporation,35.6906,139.77,broadgate,122.215.240.181,13,Tokyo,success,Asia/Tokyo,100-0001
18,http://ec2-34-204-100-153.compute-1.amazonaws.com:8545,"AS14618 Amazon.com, Inc.",Ashburn,United States,US,"Amazon.com, Inc.",39.0438,-77.4874,AWS EC2 (us-east-1),34.204.100.153,VA,Virginia,success,America/New_York,20149
19,http://122x215x240x182.ap122.ftth.ucom.ne.jp:8545,AS17506 ARTERIA Networks Corporation,Chiyoda,Japan,JP,ARTERIA Networks Corporation,35.6906,139.77,broadgate,122.215.240.182,13,Tokyo,success,Asia/Tokyo,100-0001
20,http://101.37.12.209:8545,"AS37963 Hangzhou Alibaba Advertising Co.,Ltd.",Hangzhou,China,CN,Hangzhou Alibaba Advertising Co,30.2741,120.155,"Aliyun Computing Co., LTD",101.37.12.209,ZJ,Zhejiang,success,Asia/Shanghai,
21,http://47.93.181.217:8545,"AS37963 Hangzhou Alibaba Advertising Co.,Ltd.",Hangzhou,China,CN,Hangzhou Alibaba Advertising Co,30.2741,120.155,"Aliyun Computing Co., LTD",47.93.181.217,ZJ,Zhejiang,success,Asia/Shanghai,
22,http://47.74.129.126:8545,"AS45102 Alibaba (US) Technology Co., Ltd.",Singapore,Singapore,SG,Alibaba Cloud (Singapore) Private Limited,1.28445,103.851,Alibaba.com LLC,47.74.129.126,,,success,Asia/Singapore,
23,http://128.199.160.217:8545,"AS14061 DigitalOcean, LLC",Singapore,Singapore,SG,"DigitalOcean, LLC",1.32123,103.695,Digital Ocean,128.199.160.217,,,success,Asia/Singapore,627753
24,http://47.75.80.52:8545,"AS45102 Alibaba (US) Technology Co., Ltd.",Central,Hong Kong,HK,Alibaba.com LLC,22.2909,114.15,ALICLOUD-HK,47.75.80.52,HCW,Central and Western District,success,Asia/Hong_Kong,96521
25,http://106.120.71.212:8545,AS4847 China Networks Inter-Exchange,Beijing,China,CN,China Networks Inter-Exchange,39.9288,116.3889,Chinanet BJ,106.120.71.212,BJ,Beijing,success,Asia/Shanghai,
26,http://34.220.66.196:8545,"AS16509 Amazon.com, Inc.",Portland,United States,US,"Amazon.com, Inc.",45.5235,-122.676,AWS EC2 (us-west-2),34.220.66.196,OR,Oregon,success,America/Los_Angeles,97207
27,http://ec2-52-91-30-201.compute-1.amazonaws.com:8545,"AS14618 Amazon.com, Inc.",Ashburn,United States,US,"Amazon.com, Inc.",39.0438,-77.4874,AWS EC2 (us-east-1),52.91.30.201,VA,Virginia,success,America/New_York,20149
28,http://118.31.166.41:8545,"AS37963 Hangzhou Alibaba Advertising Co.,Ltd.",Hangzhou,China,CN,Hangzhou Alibaba Advertising Co,30.2741,120.155,"Aliyun Computing Co., LTD",118.31.166.41,ZJ,Zhejiang,success,Asia/Shanghai,
29,http://47.99.43.77:8545,"AS37963 Hangzhou Alibaba Advertising Co.,Ltd.",Hangzhou,China,CN,Addresses CNNIC,30.2741,120.155,"Aliyun Computing Co., LTD",47.99.43.77,ZJ,Zhejiang,success,Asia/Shanghai,
30,http://222.143.26.165:8545,AS4837 CHINA UNICOM China169 Backbone,luohe shi,China,CN,CNC Group CHINA169 Henan Province Network,33.4408,113.608,,222.143.26.165,HA,Henan,success,Asia/Shanghai,
31,http://121.78.3.151:8545,AS9957 KINX,Seoul,South Korea,KR,KINX,37.5904,127.036,KINX,121.78.3.151,11,Seoul,success,Asia/Seoul,2543
32,http://34.236.144.91:8545,"AS14618 Amazon.com, Inc.",Ashburn,United States,US,"Amazon.com, Inc.",39.0438,-77.4874,AWS EC2 (us-east-1),34.236.144.91,VA,Virginia,success,America/New_York,20149
33,http://112.74.180.221:8545,"AS37963 Hangzhou Alibaba Advertising Co.,Ltd.",Hangzhou,China,CN,Addresses CNNIC,30.2741,120.155,"Aliyun Computing Co., LTD",112.74.180.221,ZJ,Zhejiang,success,Asia/Shanghai,
34,http://159.69.26.191:8545,AS24940 Hetzner Online GmbH,Kornwestheim,Germany,DE,Hetzner Online GmbH,48.8631,9.1877,Hetzner,159.69.26.191,BW,Baden-Württemberg,success,Europe/Berlin,70806
35,http://147.75.80.165:8545,"AS54825 Packet Host, Inc.",Parsippany,United States,US,PACKET,40.8617,-74.4104,"Packet Host, Inc.",147.75.80.165,NJ,New Jersey,success,America/New_York,7054
36,http://47.90.2.11:8545,"AS45102 Alibaba (US) Technology Co., Ltd.",Beijing,China,CN,Alibaba.com LLC,39.9042,116.407,ALICLOUD-HK,47.90.2.11,BJ,Beijing,success,Asia/Shanghai,
37,http://54.197.98.99:8545,"AS14618 Amazon.com, Inc.",Ashburn,United States,US,"Amazon.com, Inc.",39.0438,-77.4874,AWS EC2 (us-east-1),54.197.98.99,VA,Virginia,success,America/New_York,20149
38,http://18.219.86.142:8545,"AS16509 Amazon.com, Inc.",Dublin,United States,US,"Amazon.com, Inc.",40.0992,-83.1141,AWS EC2 (us-east-2),18.219.86.142,OH,Ohio,success,America/New_York,43017
39,http://112.74.161.91:8545,"AS37963 Hangzhou Alibaba Advertising Co.,Ltd.",Hangzhou,China,CN,Addresses CNNIC,30.2741,120.155,"Aliyun Computing Co., LTD",112.74.161.91,ZJ,Zhejiang,success,Asia/Shanghai,
40,http://95.143.85.101:8545,AS39912 oja.at GmbH,Vienna,Austria,AT,oja.at GmbH,48.2082,16.3738,I3B - INternetbreitband GmbH,95.143.85.101,9,Vienna,success,Europe/Vienna,1010
41,http://18.194.90.118:8545,"AS16509 Amazon.com, Inc.",Frankfurt am Main,Germany,DE,Amazon Technologies Inc.,50.1109,8.68213,AWS EC2 (eu-central-1),18.194.90.118,HE,Hesse,success,Europe/Berlin,60313
42,http://18.188.194.137:8545,"AS16509 Amazon.com, Inc.",Dublin,United States,US,"Amazon.com, Inc.",40.0992,-83.1141,AWS EC2 (us-east-2),18.188.194.137,OH,Ohio,success,America/New_York,43017
43,http://118.89.52.82:8545,AS45090 Shenzhen Tencent Computer Systems Company Limited,Tokyo,Japan,JP,Shenzhen Tencent Computer Systems Company Limited,35.709,139.732,"Tencent cloud computing (Beijing) Co., Ltd.",118.89.52.82,13,Tokyo,success,Asia/Tokyo,162-0801
44,http://116.62.100.69:8545,"AS37963 Hangzhou Alibaba Advertising Co.,Ltd.",Beijing,China,CN,CNC Group CHINA169 Fujian Province Network,39.9042,116.407,"Beijing Kuancom Network Technology Co., Ltd.",116.62.100.69,BJ,Beijing,success,Asia/Shanghai,
45,http://47.98.209.160:8545,"AS37963 Hangzhou Alibaba Advertising Co.,Ltd.",Hangzhou,China,CN,Addresses CNNIC,30.2741,120.155,"Aliyun Computing Co., LTD",47.98.209.160,ZJ,Zhejiang,success,Asia/Shanghai,
46,http://54.169.164.110:8545,"AS16509 Amazon.com, Inc.",Singapore,Singapore,SG,"Amazon.com, Inc.",1.28009,103.851,AWS EC2 (ap-southeast-1),54.169.164.110,,,success,Asia/Singapore,
47,http://210.181.103.62:8545,AS9318 SK Broadband Co Ltd,Seoul,South Korea,KR,SK Broadband Co Ltd,37.5571,126.976,broadNnet,210.181.103.62,11,Seoul,success,Asia/Seoul,4625
48,http://47.74.178.62:8545,"AS45102 Alibaba (US) Technology Co., Ltd.",Singapore,Singapore,SG,Alibaba Cloud (Singapore) Private Limited,1.28445,103.851,Alibaba.com LLC,47.74.178.62,,,success,Asia/Singapore,
49,http://13.125.67.132:8545,"AS16509 Amazon.com, Inc.",Seoul,South Korea,KR,Amazon Technologies Inc.,37.5665,126.978,AWS EC2 (ap-northeast-2),13.125.67.132,11,Seoul,success,Asia/Seoul,
50,http://18.219.171.162:8545,"AS16509 Amazon.com, Inc.",Dublin,United States,US,"Amazon.com, Inc.",40.0992,-83.1141,AWS EC2 (us-east-2),18.219.171.162,OH,Ohio,success,America/New_York,43017
51,http://65.49.235.155:8545,AS25820 IT7 Networks Inc,Vancouver,Canada,CA,IT7 Networks Inc,49.2643,-123.0961,IT7 Networks Inc,65.49.235.155,BC,British Columbia,success,America/Vancouver,V5T
52,http://54.167.54.36:8545,"AS14618 Amazon.com, Inc.",Ashburn,United States,US,"Amazon.com, Inc.",39.0438,-77.4874,AWS EC2 (us-east-1),54.167.54.36,VA,Virginia,success,America/New_York,20149
53,http://ec2-35-176-224-139.eu-west-2.compute.amazonaws.com:8545,"AS16509 Amazon.com, Inc.",London,United Kingdom,GB,Amazon Technologies Inc.,51.5074,-0.127758,AWS EC2 (eu-west-2),35.176.224.139,ENG,England,success,Europe/London,W1B
54,http://176.34.19.187:8545,"AS16509 Amazon.com, Inc.",Tokyo,Japan,JP,"Amazon.com, Inc.",35.6895,139.692,AWS EC2 (ap-northeast-1),176.34.19.187,13,Tokyo,success,Asia/Tokyo,150-0002
55,http://ec2-52-52-64-60.us-west-1.compute.amazonaws.com:8545,"AS16509 Amazon.com, Inc.",San Jose,United States,US,"Amazon.com, Inc.",37.3394,-121.895,AWS EC2 (us-west-1),52.52.64.60,CA,California,success,America/Los_Angeles,95141
56,http://101.200.32.35:8545,"AS37963 Hangzhou Alibaba Advertising Co.,Ltd.",Hangzhou,China,CN,Hangzhou Alibaba Advertising Co,30.2741,120.155,"Aliyun Computing Co., LTD",101.200.32.35,ZJ,Zhejiang,success,Asia/Shanghai,
57,http://52.78.219.154:8545,"AS16509 Amazon.com, Inc.",Seoul,South Korea,KR,Amazon Technologies Inc.,37.5665,126.978,AWS EC2 (ap-northeast-2),52.78.219.154,11,Seoul,success,Asia/Seoul,
58,http://139.199.38.130:8545,AS45090 Shenzhen Tencent Computer Systems Company Limited,San Jose,United States,US,Shenzhen Tencent Computer Systems Company Limited,37.3382,-121.886,"Tencent cloud computing (Beijing) Co., Ltd.",139.199.38.130,CA,California,success,America/Los_Angeles,95141
59,http://18.211.119.235:8545,"AS14618 Amazon.com, Inc.",Ashburn,United States,US,"Amazon.com, Inc.",39.0438,-77.4874,AWS EC2 (us-east-1),18.211.119.235,VA,Virginia,success,America/New_York,20149
60,http://188.227.17.176:8545,AS48096 Enterprise Cloud Ltd.,St Petersburg,Russia,RU,Enterprise Cloud Ltd.,59.9343,30.3351,IT Grad 1st,188.227.17.176,SPE,St.-Petersburg,success,Europe/Moscow,
61,http://54.249.49.189:8545,"AS16509 Amazon.com, Inc.",Tokyo,Japan,JP,"Amazon.com, Inc.",35.6895,139.692,AWS EC2 (ap-northeast-1),54.249.49.189,13,Tokyo,success,Asia/Tokyo,150-0002
62,http://147.75.111.247:8545,"AS54825 Packet Host, Inc.",Los Angeles,United States,US,PACKET,34.0584,-118.278,"Packet Host, Inc.",147.75.111.247,CA,California,success,America/Los_Angeles,90017
63,http://178.128.252.30:8545,"AS14061 DigitalOcean, LLC",Amsterdam,Netherlands,NL,DigitalOcean,52.374,4.8897,Digitalocean,178.128.252.30,NH,North Holland,success,Europe/Amsterdam,1012
64,http://ec2-54-169-3-208.ap-southeast-1.compute.amazonaws.com:8545,"AS16509 Amazon.com, Inc.",Singapore,Singapore,SG,"Amazon.com, Inc.",1.28009,103.851,AWS EC2 (ap-southeast-1),54.169.3.208,,,success,Asia/Singapore,
65,http://120.79.156.40:8545,"AS37963 Hangzhou Alibaba Advertising Co.,Ltd.",Hangzhou,China,CN,Hangzhou Alibaba Advertising Co,30.2741,120.155,"Aliyun Computing Co., LTD",120.79.156.40,ZJ,Zhejiang,success,Asia/Shanghai,
66,http://47.75.91.163:8545,"AS45102 Alibaba (US) Technology Co., Ltd.",Central,Hong Kong,HK,Alibaba.com LLC,22.2909,114.15,ALICLOUD-HK,47.75.91.163,HCW,Central and Western District,success,Asia/Hong_Kong,96521
67,http://39.106.24.183:8545,"AS37963 Hangzhou Alibaba Advertising Co.,Ltd.",Hangzhou,China,CN,Hangzhou Alibaba Advertising Co,30.2741,120.155,"Aliyun Computing Co., LTD",39.106.24.183,ZJ,Zhejiang,success,Asia/Shanghai,
68,http://35.164.225.188:8545,"AS16509 Amazon.com, Inc.",Portland,United States,US,"Amazon.com, Inc.",45.5235,-122.676,AWS EC2 (us-west-2),35.164.225.188,OR,Oregon,success,America/Los_Angeles,97207
69,http://34.214.43.223:8545,"AS16509 Amazon.com, Inc.",Portland,United States,US,"Amazon.com, Inc.",45.5235,-122.676,AWS EC2 (us-west-2),34.214.43.223,OR,Oregon,success,America/Los_Angeles,97207
70,http://185.22.61.111:8545,"AS199274 Serveroid, LLC",Moscow,Russia,RU,"Serveroid, LLC",55.7132,37.6202,Ionica LLC,185.22.61.111,MOW,Moscow,success,Europe/Moscow,101194
71,http://159.203.171.169:8545,"AS14061 DigitalOcean, LLC",Clifton,United States,US,"DigitalOcean, LLC",40.8364,-74.1403,Digital Ocean,159.203.171.169,NJ,New Jersey,success,America/New_York,7014
72,http://static.172.144.216.95.clients.your-server.de:8545,AS24940 Hetzner Online GmbH,Tuusula,Finland,FI,Hetzner Online GmbH,60.404,25.0131,HETZNER-DC,95.216.144.172,18,Uusimaa,success,Europe/Helsinki,4300
73,http://47.52.118.122:8545,"AS45102 Alibaba (US) Technology Co., Ltd.",Beijing,China,CN,Alibaba.com LLC,39.9042,116.407,ALICLOUD-HK,47.52.118.122,BJ,Beijing,success,Asia/Shanghai,
74,http://18.191.214.222:8545,"AS16509 Amazon.com, Inc.",Dublin,United States,US,"Amazon.com, Inc.",40.0992,-83.1141,AWS EC2 (us-east-2),18.191.214.222,OH,Ohio,success,America/New_York,43017
75,http://52.19.63.244:8545,"AS16509 Amazon.com, Inc.",Dublin,Ireland,IE,"Amazon.com, Inc.",53.3498,-6.26031,AWS EC2 (eu-west-1),52.19.63.244,L,Leinster,success,Europe/Dublin,D02
76,http://159.65.3.252:8545,"AS14061 DigitalOcean, LLC",Singapore,Singapore,SG,"DigitalOcean, LLC",1.32123,103.695,Digital Ocean,159.65.3.252,,,success,Asia/Singapore,627753
77,http://sisko.box.kairo.at:8545,AS6830 Liberty Global B.V.,Vienna,Austria,AT,UPC Austria GmbH,48.1791,16.3451,UPC Austria GmbH,85.125.34.213,9,Vienna,success,Europe/Vienna,1120
78,http://159.203.77.71:8545,"AS14061 DigitalOcean, LLC",Clifton,United States,US,"DigitalOcean, LLC",40.8364,-74.1403,Digital Ocean,159.203.77.71,NJ,New Jersey,success,America/New_York,7014
79,http://159.89.40.251:8545,"AS14061 DigitalOcean, LLC",Clifton,United States,US,"DigitalOcean, LLC",40.8364,-74.1403,Digital Ocean,159.89.40.251,NJ,New Jersey,success,America/New_York,7014
80,http://ec2-18-182-15-13.ap-northeast-1.compute.amazonaws.com:8545,"AS16509 Amazon.com, Inc.",Tokyo,Japan,JP,Amazon Technologies Inc.,35.6895,139.692,AWS EC2 (ap-northeast-1),18.182.15.13,13,Tokyo,success,Asia/Tokyo,150-0002
81,http://47.95.255.48:8545,"AS37963 Hangzhou Alibaba Advertising Co.,Ltd.",Hangzhou,China,CN,Hangzhou Alibaba Advertising Co,30.2741,120.155,"Aliyun Computing Co., LTD",47.95.255.48,ZJ,Zhejiang,success,Asia/Shanghai,
82,http://23.111.173.210:8545,"AS29802 HIVELOCITY, Inc.",Tampa,United States,US,NOC4Hosts Inc.,28.0199,-82.5247,NOC4Hosts Inc,23.111.173.210,FL,Florida,success,America/New_York,33614
83,http://47.96.72.125:8545,"AS37963 Hangzhou Alibaba Advertising Co.,Ltd.",Hangzhou,China,CN,Hangzhou Alibaba Advertising Co,30.2741,120.155,"Aliyun Computing Co., LTD",47.96.72.125,ZJ,Zhejiang,success,Asia/Shanghai,
84,http://ec2-34-228-41-220.compute-1.amazonaws.com:8545,"AS14618 Amazon.com, Inc.",Ashburn,United States,US,"Amazon.com, Inc.",39.0438,-77.4874,AWS EC2 (us-east-1),34.228.41.220,VA,Virginia,success,America/New_York,20149
85,http://52.14.8.53:8545,"AS16509 Amazon.com, Inc.",Dublin,United States,US,"Amazon.com, Inc.",40.0992,-83.1141,AWS EC2 (us-east-2),52.14.8.53,OH,Ohio,success,America/New_York,43017
86,http://47.75.109.241:8545,"AS45102 Alibaba (US) Technology Co., Ltd.",Central,Hong Kong,HK,Alibaba.com LLC,22.2909,114.15,ALICLOUD-HK,47.75.109.241,HCW,Central and Western District,success,Asia/Hong_Kong,96521
87,http://178.128.76.68:8545,"AS14061 DigitalOcean, LLC",San Francisco,United States,US,DigitalOcean,37.7751,-122.4193,Digitalocean,178.128.76.68,CA,California,success,America/Los_Angeles,94119
88,http://docker2.realidadfutura.net:8545,AS16276 OVH SAS,Lavapiés,Spain,ES,OVH SAS,40.3833,-3.70589,Guillermo Garcia Molina,178.32.231.56,MD,Madrid,success,Europe/Madrid,28002
89,http://147.75.100.193:8545,"AS54825 Packet Host, Inc.",Central,Hong Kong,HK,PACKET,22.2909,114.15,"Packet Host, Inc.",147.75.100.193,HCW,Central and Western District,success,Asia/Hong_Kong,96521
90,http://159.138.22.142:8545,AS136907 HUAWEI CLOUDS,Hong Kong,Hong Kong,HK,Huawei International Pte. Ltd.,22.3964,114.109,,159.138.22.142,HCW,Central and Western District,success,Asia/Hong_Kong,
91,http://47.89.179.248:8545,"AS45102 Alibaba (US) Technology Co., Ltd.",Ashburn,United States,US,Alibaba.com LLC,39.0438,-77.4874,ALICLOUD-US,47.89.179.248,VA,Virginia,success,America/New_York,20149
92,http://52.187.147.199:8545,AS8075 Microsoft Corporation,Singapore,Singapore,SG,Microsoft Corporation,1.283,103.833,Microsoft Azure Cloud (southeastasia),52.187.147.199,,,success,Asia/Singapore,
93,http://23-111-129-50.static.hvvc.us:8545,"AS29802 HIVELOCITY, Inc.",Tampa,United States,US,NOC4Hosts Inc.,27.9247,-82.5105,NOC4Hosts Inc,23.111.129.50,FL,Florida,success,America/New_York,33629
94,http://51.15.114.32:8545,AS12876 ONLINE S.A.S.,Amsterdam,Netherlands,NL,Online S.A.S.,52.374,4.8897,Online NET Dedicated Servers,51.15.114.32,NH,North Holland,success,Europe/Amsterdam,1012
95,http://54.186.106.158:8545,"AS16509 Amazon.com, Inc.",Portland,United States,US,"Amazon.com, Inc.",45.5235,-122.676,AWS EC2 (us-west-2),54.186.106.158,OR,Oregon,success,America/Los_Angeles,97207
96,http://54.164.181.159:8545,"AS14618 Amazon.com, Inc.",Ashburn,United States,US,"Amazon.com, Inc.",39.0438,-77.4874,AWS EC2 (us-east-1),54.164.181.159,VA,Virginia,success,America/New_York,20149
97,http://ec2-34-220-126-98.us-west-2.compute.amazonaws.com:8545,"AS16509 Amazon.com, Inc.",Portland,United States,US,"Amazon.com, Inc.",45.5235,-122.676,AWS EC2 (us-west-2),34.220.126.98,OR,Oregon,success,America/Los_Angeles,97207
98,http://47.98.252.101:8545,"AS37963 Hangzhou Alibaba Advertising Co.,Ltd.",Hangzhou,China,CN,Addresses CNNIC,30.2741,120.155,"Aliyun Computing Co., LTD",47.98.252.101,ZJ,Zhejiang,success,Asia/Shanghai,
99,http://118.24.16.191:8545,AS45090 Shenzhen Tencent Computer Systems Company Limited,Haidian,China,CN,TENCENT,39.9822,116.306,"Tencent Cloud Computing (Beijing) Co., Ltd",118.24.16.191,BJ,Beijing,success,Asia/Shanghai,
100,http://54.91.124.198:8545,"AS14618 Amazon.com, Inc.",Ashburn,United States,US,"Amazon.com, Inc.",39.0438,-77.4874,AWS EC2 (us-east-1),54.91.124.198,VA,Virginia,success,America/New_York,20149
101,http://18.211.234.172:8545,"AS14618 Amazon.com, Inc.",Ashburn,United States,US,"Amazon.com, Inc.",39.0438,-77.4874,AWS EC2 (us-east-1),18.211.234.172,VA,Virginia,success,America/New_York,20149
102,http://46.53.144.128:8545,AS20852 Unitary enterprise A1,Minsk,Belarus,BY,"FE ""ALTERNATIVNAYA ZIFROVAYA SET"" Vitebsk",53.8685,27.5921,Velcom AZS LLC,46.53.144.128,HM,Minsk City,success,Europe/Minsk,220030
103,http://118.226.204.35.bc.googleusercontent.com:8545,AS15169 Google LLC,Ashburn,United States,US,Google LLC,39.0438,-77.4874,Google LLC,35.204.226.118,VA,Virginia,success,America/New_York,20149
104,http://18.236.124.155:8545,"AS16509 Amazon.com, Inc.",Portland,United States,US,"Amazon.com, Inc.",45.5235,-122.676,AWS EC2 (us-west-2),18.236.124.155,OR,Oregon,success,America/Los_Angeles,97207
105,http://34.217.13.70:8545,"AS16509 Amazon.com, Inc.",Portland,United States,US,"Amazon.com, Inc.",45.5235,-122.676,AWS EC2 (us-west-2),34.217.13.70,OR,Oregon,success,America/Los_Angeles,97207
106,http://120.131.11.164:8545,"AS59019 Beijing Kingsoft Cloud Internet Technology Co., Ltd",Beijing,China,CN,Beijing Kingsoft Cloud Internet Technology Co,39.9042,116.407,"Beijing Kingsoft Cloud Internet Technology Co., Ltd.",120.131.11.164,BJ,Beijing,success,Asia/Shanghai,
107,http://47.91.108.90:8545,"AS45102 Alibaba (US) Technology Co., Ltd.",Dubai,United Arab Emirates,AE,"Alibaba (US) Technology Co., Ltd.",25.2048,55.2708,Alibaba.com LLC,47.91.108.90,DU,Dubai,success,Asia/Dubai,
108,http://167.99.147.27:8545,"AS14061 DigitalOcean, LLC",North Bergen,United States,US,"DigitalOcean, LLC",40.793,-74.0247,Digital Ocean,167.99.147.27,NJ,New Jersey,success,America/New_York,7047
109,http://47.92.73.174:8545,"AS37963 Hangzhou Alibaba Advertising Co.,Ltd.",Hangzhou,China,CN,Hangzhou Alibaba Advertising Co,30.2741,120.155,"Aliyun Computing Co., LTD",47.92.73.174,ZJ,Zhejiang,success,Asia/Shanghai,
110,http://188.166.121.96:8545,"AS14061 DigitalOcean, LLC",Amsterdam,Netherlands,NL,"DigitalOcean, LLC",52.352,4.9392,Digital Ocean,188.166.121.96,NH,North Holland,success,Europe/Amsterdam,1098
111,http://ec2-54-222-133-149.cn-north-1.compute.amazonaws.com.cn:8545,AS55960 Beijing Guanghuan Xinwang Digital,Beijing,China,CN,Beijing Guanghuan Xinwang Digital,39.9288,116.3889,AWS EC2 (cn-north-1),54.222.133.149,BJ,Beijing,success,Asia/Shanghai,
112,http://94.130.66.112:8545,AS24940 Hetzner Online GmbH,Falkenstein,Germany,DE,Hetzner Online GmbH,50.475,12.365,Hetzner,94.130.66.112,SN,Saxony,success,Europe/Berlin,8223
113,http://128.199.139.57:8545,"AS14061 DigitalOcean, LLC",Singapore,Singapore,SG,"DigitalOcean, LLC",1.32123,103.695,Digital Ocean,128.199.139.57,,,success,Asia/Singapore,627753
114,http://ec2-13-124-139-36.ap-northeast-2.compute.amazonaws.com:8545,"AS16509 Amazon.com, Inc.",Seoul,South Korea,KR,Amazon Technologies Inc.,37.5665,126.978,AWS EC2 (ap-northeast-2),13.124.139.36,11,Seoul,success,Asia/Seoul,
115,http://101.37.162.87:8545,"AS37963 Hangzhou Alibaba Advertising Co.,Ltd.",Hangzhou,China,CN,Hangzhou Alibaba Advertising Co,30.2741,120.155,"Aliyun Computing Co., LTD",101.37.162.87,ZJ,Zhejiang,success,Asia/Shanghai,
116,http://ec2-18-179-189-84.ap-northeast-1.compute.amazonaws.com:8545,"AS16509 Amazon.com, Inc.",Tokyo,Japan,JP,Amazon Technologies Inc.,35.6895,139.692,AWS EC2 (ap-northeast-1),18.179.189.84,13,Tokyo,success,Asia/Tokyo,150-0002
117,http://209.97.177.161:8545,"AS14061 DigitalOcean, LLC",London,United Kingdom,GB,"DigitalOcean, LLC",51.5353,-0.6658,"DigitalOcean, LLC",209.97.177.161,ENG,England,success,Europe/London,SL1
118,http://47.90.203.226:8545,"AS45102 Alibaba (US) Technology Co., Ltd.",Ashburn,United States,US,Alibaba.com LLC,39.0438,-77.4874,ALICLOUD-US,47.90.203.226,VA,Virginia,success,America/New_York,20149
119,http://47.254.157.139:8545,"AS45102 Alibaba (US) Technology Co., Ltd.",Frankfurt am Main,Germany,DE,Alibaba.com LLC,50.1129,8.66236,AliCloud (Germany) GmbH,47.254.157.139,HE,Hesse,success,Europe/Berlin,60325
120,http://oki-180-131-208-217.jptransit.net:8545,AS55900 GLBB Japan KK,Chatan,Japan,JP,GLBBADM,26.3295,127.751,,180.131.208.217,47,Okinawa,success,Asia/Tokyo,904-0112
121,http://54.169.39.25:8545,"AS16509 Amazon.com, Inc.",Singapore,Singapore,SG,"Amazon.com, Inc.",1.28009,103.851,AWS EC2 (ap-southeast-1),54.169.39.25,,,success,Asia/Singapore,
122,http://47.74.247.110:8545,"AS45102 Alibaba (US) Technology Co., Ltd.",Singapore,Singapore,SG,Alibaba Cloud (Singapore) Private Limited,1.28445,103.851,Alibaba.com LLC,47.74.247.110,,,success,Asia/Singapore,
123,http://47.75.9.16:8545,"AS45102 Alibaba (US) Technology Co., Ltd.",Central,Hong Kong,HK,Alibaba.com LLC,22.2909,114.15,ALICLOUD-HK,47.75.9.16,HCW,Central and Western District,success,Asia/Hong_Kong,96521
124,http://59.110.212.17:8545,"AS37963 Hangzhou Alibaba Advertising Co.,Ltd.",Hangzhou,China,CN,Hangzhou Alibaba Advertising Co,30.2741,120.155,"Aliyun Computing Co., LTD",59.110.212.17,ZJ,Zhejiang,success,Asia/Shanghai,
125,http://18.231.185.118:8545,"AS16509 Amazon.com, Inc.",São Paulo,Brazil,BR,Amazon Technologies Inc.,-23.5505,-46.6333,AWS EC2 (sa-east-1),18.231.185.118,SP,São Paulo,success,America/Sao_Paulo,01000-000
126,http://116.62.13.186:8545,"AS37963 Hangzhou Alibaba Advertising Co.,Ltd.",Hangzhou,China,CN,Addresses CNNIC,30.2741,120.155,"Aliyun Computing Co., LTD",116.62.13.186,ZJ,Zhejiang,success,Asia/Shanghai,
127,http://39.105.140.1:8545,"AS37963 Hangzhou Alibaba Advertising Co.,Ltd.",Hangzhou,China,CN,Hangzhou Alibaba Advertising Co,30.2741,120.155,"Aliyun Computing Co., LTD",39.105.140.1,ZJ,Zhejiang,success,Asia/Shanghai,
128,http://47.91.252.103:8545,"AS45102 Alibaba (US) Technology Co., Ltd.",Beijing,China,CN,Alibaba.com LLC,39.9042,116.407,ALICLOUD-HK,47.91.252.103,BJ,Beijing,success,Asia/Shanghai,
129,http://ec2-52-15-167-99.us-east-2.compute.amazonaws.com:8545,"AS16509 Amazon.com, Inc.",Dublin,United States,US,"Amazon.com, Inc.",40.0992,-83.1141,AWS EC2 (us-east-2),52.15.167.99,OH,Ohio,success,America/New_York,43017
130,http://47.93.184.213:8545,"AS37963 Hangzhou Alibaba Advertising Co.,Ltd.",Hangzhou,China,CN,Hangzhou Alibaba Advertising Co,30.2741,120.155,"Aliyun Computing Co., LTD",47.93.184.213,ZJ,Zhejiang,success,Asia/Shanghai,
131,http://34.215.210.155:8545,"AS16509 Amazon.com, Inc.",Portland,United States,US,"Amazon.com, Inc.",45.5235,-122.676,AWS EC2 (us-west-2),34.215.210.155,OR,Oregon,success,America/Los_Angeles,97207
132,http://ec2-35-169-64-78.compute-1.amazonaws.com:8545,"AS14618 Amazon.com, Inc.",Ashburn,United States,US,"Amazon.com, Inc.",39.0438,-77.4874,AWS EC2 (us-east-1),35.169.64.78,VA,Virginia,success,America/New_York,20149
133,http://136.243.19.218:8545,AS24940 Hetzner Online GmbH,Falkenstein,Germany,DE,Hetzner Online GmbH,50.475,12.365,Hetzner,136.243.19.218,SN,Saxony,success,Europe/Berlin,8223
134,http://172.105.197.89:8545,"AS63949 Linode, LLC",Chiyoda,Japan,JP,"Linode, LLC",35.694,139.754,Linode,172.105.197.89,13,Tokyo,success,Asia/Tokyo,
135,http://47.91.230.183:8545,"AS45102 Alibaba (US) Technology Co., Ltd.",Beijing,China,CN,Alibaba.com LLC,39.9042,116.407,ALICLOUD-HK,47.91.230.183,BJ,Beijing,Success,Asia/Shanghai,
136,http://18.191.246.98:8545,"AS16509 Amazon.com, Inc.",Dublin,United States,US,"Amazon.com, Inc.",40.0992,-83.1141,AWS EC2 (us-east-2),18.191.246.98,OH,Ohio,success,America/New_York,43017
137,http://13.210.29.172:8545,"AS16509 Amazon.com, Inc.",Sydney,Australia,AU,Amazon Technologies Inc.,-33.8591,151.2002,AWS EC2 (ap-southeast-2),13.210.29.172,NSW,New South Wales,success,Australia/Sydney,2000
138,http://ec2-13-125-242-67.ap-northeast-2.compute.amazonaws.com:8545,"AS16509 Amazon.com, Inc.",Seoul,South Korea,KR,Amazon Technologies Inc.,37.5665,126.978,AWS EC2 (ap-northeast-2),13.125.242.67,11,Seoul,success,Asia/Seoul,
139,http://ec2-54-210-175-145.compute-1.amazonaws.com:8545,"AS14618 Amazon.com, Inc.",Ashburn,United States,US,"Amazon.com, Inc.",39.0438,-77.4874,AWS EC2 (us-east-1),54.210.175.145,VA,Virginia,success,America/New_York,20149
140,http://122x215x240x181.ap122.ftth.ucom.ne.jp:8545,AS17506 ARTERIA Networks Corporation,Chiyoda,Japan,JP,ARTERIA Networks Corporation,35.6906,139.77,broadgate,122.215.240.181,13,Tokyo,success,Asia/Tokyo,100-0001
141,http://47.96.170.19:8545,"AS37963 Hangzhou Alibaba Advertising Co.,Ltd.",Hangzhou,China,CN,Hangzhou Alibaba Advertising Co,30.2741,120.155,"Aliyun Computing Co., LTD",47.96.170.19,ZJ,Zhejiang,success,Asia/Shanghai,
142,http://178.128.174.220:8545,"AS14061 DigitalOcean, LLC",London,United Kingdom,GB,DigitalOcean,51.5353,-0.6658,Digitalocean,178.128.174.220,ENG,England,success,Europe/London,SL1
143,http://45.32.129.224:8545,"AS20473 Choopa, LLC",San Jose,United States,US,Choopa,37.3387,-121.8914,"Vultr Holdings, LLC",45.32.129.224,CA,California,success,America/Los_Angeles,95113
144,http://52.224.68.242:8545,AS8075 Microsoft Corporation,Ashburn,United States,US,Microsoft Corporation,39.0438,-77.4874,Microsoft Azure Cloud (eastus),52.224.68.242,VA,Virginia,success,America/New_York,20149
145,http://47.75.70.242:8545,"AS45102 Alibaba (US) Technology Co., Ltd.",Central,Hong Kong,HK,Alibaba.com LLC,22.2909,114.15,ALICLOUD-HK,47.75.70.242,HCW,Central and Western District,success,Asia/Hong_Kong,96521
146,http://39.107.29.152:8545,"AS37963 Hangzhou Alibaba Advertising Co.,Ltd.",Hangzhou,China,CN,Hangzhou Alibaba Advertising Co,30.2741,120.155,"Aliyun Computing Co., LTD",39.107.29.152,ZJ,Zhejiang,success,Asia/Shanghai,
147,http://ec2-54-185-154-29.us-west-2.compute.amazonaws.com:8545,"AS16509 Amazon.com, Inc.",Portland,United States,US,"Amazon.com, Inc.",45.5235,-122.676,AWS EC2 (us-west-2),54.185.154.29,OR,Oregon,success,America/Los_Angeles,97207
148,http://34.204.36.137:8545,"AS14618 Amazon.com, Inc.",Ashburn,United States,US,"Amazon.com, Inc.",39.0438,-77.4874,AWS EC2 (us-east-1),34.204.36.137,VA,Virginia,success,America/New_York,20149
149,http://185.198.57.83:8545,AS60117 Host Sailor Ltd.,Enschede,Netherlands,NL,EU-HOSTSAILOR,52.22,6.8957,,185.198.57.83,OV,Provincie Overijssel,success,Europe/Amsterdam,7511
150,http://139.59.158.0:8545,"AS14061 DigitalOcean, LLC",Frankfurt am Main,Germany,DE,"DigitalOcean, LLC",50.1188,8.6843,Digital Ocean,139.59.158.0,HE,Hesse,success,Europe/Berlin,60313
151,http://35.184.22.14:8545,AS15169 Google LLC,Ashburn,United States,US,Google LLC,39.0438,-77.4874,Google LLC,35.184.22.14,VA,Virginia,success,America/New_York,20149
152,http://45.55.50.112:8545,"AS14061 DigitalOcean, LLC",Clifton,United States,US,"DigitalOcean, LLC",40.8364,-74.1403,Digital Ocean,45.55.50.112,NJ,New Jersey,success,America/New_York,7014
153,http://101.37.160.222:8545,"AS37963 Hangzhou Alibaba Advertising Co.,Ltd.",Hangzhou,China,CN,Hangzhou Alibaba Advertising Co,30.2741,120.155,"Aliyun Computing Co., LTD",101.37.160.222,ZJ,Zhejiang,success,Asia/Shanghai,
154,http://47.96.86.249:8545,"AS37963 Hangzhou Alibaba Advertising Co.,Ltd.",Hangzhou,China,CN,Hangzhou Alibaba Advertising Co,30.2741,120.155,"Aliyun Computing Co., LTD",47.96.86.249,ZJ,Zhejiang,success,Asia/Shanghai,
155,http://199-43-184-102.static-ip.telepacific.net:8545,AS14265 TPx Communications,Escalon,United States,US,TPx Communications,37.7962,-121.0008,Readisuite,199.43.184.102,CA,California,success,America/Los_Angeles,95320
156,http://ec2-18-219-79-33.us-east-2.compute.amazonaws.com:8545,"AS16509 Amazon.com, Inc.",Dublin,United States,US,"Amazon.com, Inc.",40.0992,-83.1141,AWS EC2 (us-east-2),18.219.79.33,OH,Ohio,success,America/New_York,43017
157,http://ec2-34-212-139-136.us-west-2.compute.amazonaws.com:8545,"AS16509 Amazon.com, Inc.",Portland,United States,US,"Amazon.com, Inc.",45.5235,-122.676,AWS EC2 (us-west-2),34.212.139.136,OR,Oregon,success,America/Los_Angeles,97207
158,http://119.23.201.147:8545,"AS37963 Hangzhou Alibaba Advertising Co.,Ltd.",Hangzhou,China,CN,Addresses CNNIC,30.2741,120.155,"Aliyun Computing Co., LTD",119.23.201.147,ZJ,Zhejiang,success,Asia/Shanghai,
159,http://114.116.69.178:8545,AS4808 China Unicom Beijing Province Network,Beijing,China,CN,HWCSNET,39.9042,116.407,Huawei Public Cloud Service,114.116.69.178,BJ,Beijing,success,Asia/Shanghai,
160,http://47.88.236.91:8545,"AS45102 Alibaba (US) Technology Co., Ltd.",Singapore,Singapore,SG,Alibaba.com LLC,1.28445,103.851,ALICLOUD-SG,47.88.236.91,,,success,Asia/Singapore,
161,http://35.177.61.58:8545,"AS16509 Amazon.com, Inc.",London,United Kingdom,GB,Amazon Technologies Inc.,51.5074,-0.127758,AWS EC2 (eu-west-2),35.177.61.58,ENG,England,success,Europe/London,W1B
162,http://188.138.1.43:8545,AS8972 Host Europe GmbH,Cologne,Germany,DE,Host Europe GmbH,50.9116,7.06008,PlusServer GmbH,188.138.1.43,NW,North Rhine-Westphalia,success,Europe/Berlin,51149
163,http://ec2-18-217-146-84.us-east-2.compute.amazonaws.com:8545,"AS16509 Amazon.com, Inc.",Dublin,United States,US,"Amazon.com, Inc.",40.0992,-83.1141,AWS EC2 (us-east-2),18.217.146.84,OH,Ohio,success,America/New_York,43017
164,http://47.105.53.182:8545,"AS37963 Hangzhou Alibaba Advertising Co.,Ltd.",Hangzhou,China,CN,Hangzhou Alibaba Advertising Co,30.2741,120.155,"Aliyun Computing Co., LTD",47.105.53.182,ZJ,Zhejiang,success,Asia/Shanghai,
165,http://54.172.163.110:8545,"AS14618 Amazon.com, Inc.",Ashburn,United States,US,"Amazon.com, Inc.",39.0438,-77.4874,AWS EC2 (us-east-1),54.172.163.110,VA,Virginia,success,America/New_York,20149
166,http://47.75.150.175:8545,"AS45102 Alibaba (US) Technology Co., Ltd.",Hong Kong,Hong Kong,HK,Alibaba.com LLC,22.3964,114.109,ALICLOUD-HK,47.75.150.175,HCW,Central and Western District,success,Asia/Hong_Kong,
167,http://ec2-34-221-154-226.us-west-2.compute.amazonaws.com:8545,"AS16509 Amazon.com, Inc.",Portland,United States,US,"Amazon.com, Inc.",45.5235,-122.676,AWS EC2 (us-west-2),34.221.154.226,OR,Oregon,success,America/Los_Angeles,97207
168,http://206.189.20.131:8545,"AS14061 DigitalOcean, LLC",London,United Kingdom,GB,"DigitalOcean, LLC",51.5353,-0.6658,Digital Ocean,206.189.20.131,ENG,England,success,Europe/London,SL1
169,http://ec2-34-220-193-214.us-west-2.compute.amazonaws.com:8545,"AS16509 Amazon.com, Inc.",Portland,United States,US,"Amazon.com, Inc.",45.5235,-122.676,AWS EC2 (us-west-2),34.220.193.214,OR,Oregon,success,America/Los_Angeles,97207
170,http://cz5014.host-telecom.com:8545,AS51248 Host-Telecom.com s.r.o.,České Budějovice,Czechia,CZ,HOST-TELECOM.COM s.r.o.,48.9224,14.4643,HOST-TELECOM.COM s.r.o.,176.74.218.144,31,Jihocesky kraj,success,Europe/Prague,370 04
171,http://101.37.163.77:8545,"AS37963 Hangzhou Alibaba Advertising Co.,Ltd.",Hangzhou,China,CN,Hangzhou Alibaba Advertising Co,30.2741,120.155,"Aliyun Computing Co., LTD",101.37.163.77,ZJ,Zhejiang,success,Asia/Shanghai,
172,http://ec2-52-70-187-224.compute-1.amazonaws.com:8545,"AS14618 Amazon.com, Inc.",Ashburn,United States,US,"Amazon.com, Inc.",39.0438,-77.4874,AWS EC2 (us-east-1),52.70.187.224,VA,Virginia,success,America/New_York,20149
173,http://111.231.75.170:8545,AS45090 Shenzhen Tencent Computer Systems Company Limited,San Jose,United States,US,Shenzhen Tencent Computer Systems Company Limited,37.3382,-121.886,"Tencent cloud computing (Beijing) Co., Ltd.",111.231.75.170,CA,California,success,America/Los_Angeles,95141
174,http://144.217.5.51:8545,AS16276 OVH SAS,Beauharnois,Canada,CA,OVH SAS,45.3161,-73.8736,"OVH Hosting, Inc.",144.217.5.51,QC,Quebec,success,America/Toronto,J6N
175,http://47.52.246.172:8545,"AS45102 Alibaba (US) Technology Co., Ltd.",Beijing,China,CN,Alibaba.com LLC,39.9042,116.407,ALICLOUD-HK,47.52.246.172,BJ,Beijing,success,Asia/Shanghai,
176,http://150.109.105.170:8545,"AS132203 Tencent Building, Kejizhongyi Avenue",Central,Hong Kong,HK,Tencent Cloud Computing (Beijing) Co,22.2909,114.15,Aceville Pte.ltd,150.109.105.170,HCW,Central and Western District,success,Asia/Hong_Kong,96521
177,http://47.75.175.20:8545,"AS45102 Alibaba (US) Technology Co., Ltd.",Hong Kong,Hong Kong,HK,Alibaba.com LLC,22.3964,114.109,ALICLOUD-HK,47.75.175.20,HCW,Central and Western District,success,Asia/Hong_Kong,
178,http://ec2-35-162-201-130.us-west-2.compute.amazonaws.com:8545,"AS16509 Amazon.com, Inc.",Portland,United States,US,"Amazon.com, Inc.",45.5235,-122.676,AWS EC2 (us-west-2),35.162.201.130,OR,Oregon,success,America/Los_Angeles,97207
179,http://47.75.52.8:8545,"AS45102 Alibaba (US) Technology Co., Ltd.",Central,Hong Kong,HK,Alibaba.com LLC,22.2909,114.15,ALICLOUD-HK,47.75.52.8,HCW,Central and Western District,success,Asia/Hong_Kong,96521
180,http://110.185.107.32:8545,AS38283 CHINANET SiChuan Telecom Internet Data Center,Zhongba,China,CN,CHINANET SiChuan Telecom Internet Data Center,30.2638,102.805,Chinanet SC,110.185.107.32,SC,Sichuan,success,Asia/Shanghai,
181,http://18.216.102.20:8545,"AS16509 Amazon.com, Inc.",Dublin,United States,US,"AS16509 Amazon.com, Inc.",40.0992,-83.1141,AWS EC2 (us-east-2),18.216.102.20,OH,Ohio,success,America/New_York,
182,http://52.44.110.239:8545,"AS14618 Amazon.com, Inc.",Ashburn,United States,US,"Amazon.com, Inc.",39.0438,-77.4874,AWS EC2 (us-east-1),52.44.110.239,VA,Virginia,success,America/New_York,
183,http://165.227.159.23:8545,"AS14061 DigitalOcean, LLC",Frankfurt am Main,Germany,DE,"DigitalOcean, LLC",50.1188,8.6843,Digital Ocean,165.227.159.23,HE,Hesse,success,Europe/Berlin,60313
184,http://ec2-35-173-57-26.compute-1.amazonaws.com:8545,"AS14618 Amazon.com, Inc.",Ashburn,United States,US,"Amazon.com, Inc.",39.0438,-77.4874,AWS EC2 (us-east-1),35.173.57.26,VA,Virginia,success,America/New_York,20149
185,http://39.107.60.254:8545,"AS37963 Hangzhou Alibaba Advertising Co.,Ltd.",Hangzhou,China,CN,Hangzhou Alibaba Advertising Co,30.2741,120.155,"Aliyun Computing Co., LTD",39.107.60.254,ZJ,Zhejiang,success,Asia/Shanghai,
186,http://101.37.253.219:8545,"AS37963 Hangzhou Alibaba Advertising Co.,Ltd.",Hangzhou,China,CN,Hangzhou Alibaba Advertising Co,30.2741,120.155,"Aliyun Computing Co., LTD",101.37.253.219,ZJ,Zhejiang,success,Asia/Shanghai,
187,http://47.52.97.36:8545,"AS45102 Alibaba (US) Technology Co., Ltd.",Beijing,China,CN,Alibaba.com LLC,39.9042,116.407,ALICLOUD-HK,47.52.97.36,BJ,Beijing,success,Asia/Shanghai,
188,http://47.100.63.22:8545,"AS37963 Hangzhou Alibaba Advertising Co.,Ltd.",Hangzhou,China,CN,Addresses CNNIC,30.2741,120.155,"Aliyun Computing Co., LTD",47.100.63.22,ZJ,Zhejiang,success,Asia/Shanghai,
189,http://147.135.254.199:8545,AS16276 OVH SAS,Gravelines,France,FR,OVH SAS,50.9871,2.12554,OVH,147.135.254.199,HDF,Hauts-de-France,success,Europe/Paris,59820
190,http://ec2-35-174-18-207.compute-1.amazonaws.com:8545,"AS14618 Amazon.com, Inc.",Ashburn,United States,US,"Amazon.com, Inc.",39.0438,-77.4874,AWS EC2 (us-east-1),35.174.18.207,VA,Virginia,success,America/New_York,20149
191,http://103.75.1.103:8545,"AS133041 Tianxin Group Co., Limited",Wanchai,Hong Kong,HK,Hong Kong Data Center,22.2786,114.178,,103.75.1.103,HWC,Wan Chai,success,Asia/Hong_Kong,96521
192,http://ec2-54-169-144-165.ap-southeast-1.compute.amazonaws.com:8545,"AS16509 Amazon.com, Inc.",Singapore,Singapore,SG,"Amazon.com, Inc.",1.28009,103.851,AWS EC2 (ap-southeast-1),54.169.144.165,,,success,Asia/Singapore,
193,http://static.31.48.201.138.clients.your-server.de:8545,AS24940 Hetzner Online GmbH,Mudau,Germany,DE,Hetzner Online GmbH,49.5365,9.2065,Hetzner,138.201.48.31,BW,Baden-Württemberg,success,Europe/Berlin,69427
194,http://ec2-54-91-105-122.compute-1.amazonaws.com:8545,"AS14618 Amazon.com, Inc.",Ashburn,United States,US,"Amazon.com, Inc.",39.0438,-77.4874,AWS EC2 (us-east-1),54.91.105.122,VA,Virginia,success,America/New_York,20149
195,http://116.62.210.86:8545,"AS37963 Hangzhou Alibaba Advertising Co.,Ltd.",Beijing,China,CN,CNC Group CHINA169 Fujian Province Network,39.9042,116.407,"Beijing Kuancom Network Technology Co., Ltd.",116.62.210.86,BJ,Beijing,success,Asia/Shanghai,
196,http://47.90.205.33:8545,"AS45102 Alibaba (US) Technology Co., Ltd.",Ashburn,United States,US,Alibaba.com LLC,39.0438,-77.4874,ALICLOUD-US,47.90.205.33,VA,Virginia,success,America/New_York,20149
197,http://116.62.13.150:8545,"AS37963 Hangzhou Alibaba Advertising Co.,Ltd.",Hangzhou,China,CN,Addresses CNNIC,30.2741,120.155,"Aliyun Computing Co., LTD",116.62.13.150,ZJ,Zhejiang,success,Asia/Shanghai,
198,http://114.116.42.165:8545,AS4808 China Unicom Beijing Province Network,Beijing,China,CN,HWCSNET,39.9042,116.407,Huawei Public Cloud Service,114.116.42.165,BJ,Beijing,success,Asia/Shanghai,
199,http://ec2-18-208-64-51.compute-1.amazonaws.com:8545,"AS14618 Amazon.com, Inc.",Ashburn,United States,US,"Amazon.com, Inc.",39.0438,-77.4874,AWS EC2 (us-east-1),18.208.64.51,VA,Virginia,success,America/New_York,20149